0 ASTRA 2D
1 26638U 00081A   13283.08674877  .00000000  00000-0  10000-3 0  3772
2 26638 001.2856 077.5340 0000898 159.6529 200.9779 01.00274566 45764
0 ASTRA 2D
1 26638U 00081A   13283.79449568  .00000132  00000-0  00000+0 0  3778
2 26638 001.2876 077.5179 0000819 030.9874 225.0814 01.00270586 46995
0 ASTRA 2D
1 26638U 00081A   13284.16969485  .00000130  00000-0  00000+0 0  3784
2 26638 001.2887 077.5247 0000695 052.7310 338.7624 01.00269892 47004
0 ASTRA 2D
1 26638U 00081A   13286.07027828  .00000126  00000-0  00000+0 0  3811
2 26638 001.2928 077.5111 0000710 050.7497 306.8173 01.00269781 47015
0 ASTRA 2D
1 26638U 00081A   13287.15070983  .00000125  00000-0  00000+0 0  3821
2 26638 001.2951 077.4998 0000720 054.6628 332.9272 01.00270251 47039
0 ASTRA 2D
1 26638U 00081A   13288.15343779  .00000125  00000-0  00000+0 0  3839
2 26638 001.2974 077.4940 0000628 063.5387 326.0225 01.00270766 47043
0 ASTRA 2D
1 26638U 00081A   13289.65852870  .00000127  00000-0  00000+0 0  3845
2 26638 001.3006 077.4826 0000636 070.6860 142.2011 01.00271595 47050
0 ASTRA 2D
1 26638U 00081A   13290.69363543  .00000129  00000-0  00000+0 0  3858
2 26638 001.3029 077.4767 0000572 100.4694 126.0811 01.00272113 47061
0 ASTRA 2D
1 26638U 00081A   13292.00000000  .00000131  00000-0  00000+0 0  3865
2 26638 001.2840 078.0070 0000311 195.2540 142.3280 01.00267070 47076
0 ASTRA 2D
1 26638U 00081A   13293.09289073  .00000133  00000-0  00000+0 0  3877
2 26638 001.3084 077.4818 0000762 138.0406 234.6160 01.00273938 47090
0 ASTRA 2D
1 26638U 00081A   13294.23116106  .00000135  00000-0  00000+0 0  3883
2 26638 001.3109 077.4716 0000812 146.3998 277.1762 01.00274550 47102
0 ASTRA 2D
1 26638U 00081A   13295.62806775  .00000137  00000-0  00000+0 0  3898
2 26638 001.3137 077.4572 0000800 147.8575 060.0125 01.00275300 47114
